STARLINK-33653          
1 63380U 25063T   26190.45013670  .00013684  00000+0  45140-3 0  9998
2 63380  53.1602 206.7473 0000728  20.9421 339.1610 15.31736688 73352
STARLINK-33643          
1 63381U 25063U   26190.52331253  .00022591  00000+0  77185-3 0  9998
2 63381  53.1568 206.4884 0001060  89.0665 271.0457 15.30228576 73414
STARLINK-33748          
1 63383U 25063W   26191.33294337  .00023436  00000+0  70296-3 0  9996
2 63383  53.1600 212.9510 0001147  83.5086 276.6047 15.34382893 73393
STARLINK-33658          
1 63384U 25063X   26191.04659216  .00024312  00000+0  72738-3 0  9993
2 63384  53.1579 200.5166 0007196 120.7615 239.4097 15.34422487 73544
STARLINK-33616          
1 63385U 25063Y   26190.36221953  .00006958  00000+0  21677-3 0  9993
2 63385  53.1578 217.5662 0001230  90.1394 269.9750 15.34412347 73199
STARLINK-33571          
1 63386U 25063Z   26191.03405055  .00014285  00000+0  43289-3 0  9991
2 63386  53.1574 212.4971 0001895  76.6952 283.4261 15.34415494 73328
STARLINK-33533          
1 63387U 25063AA  26190.45616746  .00029660  00000+0  88430-3 0  9998
2 63387  53.1582 203.2349 0000699 102.6481 257.4600 15.34443280 73404
STARLINK-33629          
1 63388U 25063AB  26191.03608501  .00006798  00000+0  21218-3 0  9992
2 63388  53.1572 200.4532 0001512 106.4276 253.6893 15.34397589 73543
STARLINK-33656          
1 63389U 25063AC  26190.45938184  .00022680  00000+0  73945-3 0  9993
2 63389  53.1578 206.0944 0001367 105.2217 254.8936 15.31740358 73419
LEMUR-2-BALTO           
1 63395U 25052BH  26191.13110204  .00003644  00000+0  29517-3 0  9994
2 63395  97.6934  84.4803 0005407 348.2785  11.8312 15.00335374 72204
TJS-16                  
1 63397U 25064A   26190.72848889 -.00000094  00000+0  00000+0 0  9999
2 63397   1.1532  81.3206 0002559 292.1918 337.0309  1.00271007  4619
STARLINK-33531          
1 63399U 25065A   26191.24196439  .00011939  00000+0  44239-3 0  9992
2 63399  43.0019 134.8920 0002306 249.7582 110.3022 15.27601004 71580
STARLINK-33652          
1 63400U 25065B   26191.21627303  .00015052  00000+0  55533-3 0  9990
2 63400  42.9953 134.6992 0001161  56.7006 303.3957 15.27583754 71582
STARLINK-33707          
1 63401U 25065C   26191.23811118  .00010703  00000+0  39774-3 0  9999
2 63401  43.0023 134.8677 0001620 247.4684 112.5996 15.27591730 71582
STARLINK-33668          
1 63402U 25065D   26191.19069765  .00016443  00000+0  60549-3 0  9999
2 63402  43.0228 135.3349 0004424 240.7199 119.3211 15.27587251 71571
STARLINK-33676          
1 63403U 25065E   26190.25602348  .00012512  00000+0  46290-3 0  9996
2 63403  43.0084 140.3866 0002803 254.0331 106.0212 15.27616112 71435
STARLINK-33711          
1 63404U 25065F   26190.23418589  .00012486  00000+0  46203-3 0  9991
2 63404  43.0067 140.2237 0001661 253.5095 106.5574 15.27612019 71438
STARLINK-33708          
1 63405U 25065G   26191.24068238  .00016951  00000+0  62395-3 0  9997
2 63405  43.0016 134.8800 0001430 278.3110  81.7579 15.27586650 71581
STARLINK-33690          
1 63406U 25065H   26191.21033410  .00031376  00000+0  11438-2 0  9998
2 63406  42.9951 131.1958 0001283  60.5458 299.5521 15.27609902 71621
STARLINK-33694          
1 63407U 25065J   26190.25217778  .00013390  00000+0  49476-3 0  9993
2 63407  43.0070 140.3527 0001802 255.8009 104.2642 15.27612159 71431
STARLINK-33692          
1 63408U 25065K   26191.21078873  .00015421  00000+0  56849-3 0  9991
2 63408  42.9909 138.9699 0000542 280.4980  79.5810 15.27593370 71531
STARLINK-33693          
1 63409U 25065L   26190.20478319  .00018400  00000+0  67600-3 0  9996
2 63409  42.9990 140.8645 0001762  10.2983 349.7905 15.27603633 71421
STARLINK-33677          
1 63410U 25065M   26191.24324898  .00011274  00000+0  41843-3 0  9998
2 63410  43.0026 134.8909 0001644 275.6913  84.3751 15.27591942 71587
STARLINK-33647          
1 63411U 25065N   26191.22572952  .00017746  00000+0  65233-3 0  9992
2 63411  42.9883 142.5531 0000747 345.0482  15.0348 15.27604634 71496
STARLINK-33645          
1 63412U 25065P   26190.25425282  .00011602  00000+0  43014-3 0  9996
2 63412  43.0015 143.7641 0001128 277.7428  82.3296 15.27606430 71390
STARLINK-33670          
1 63413U 25065Q   26190.97784210  .00015394  00000+0  56744-3 0  9991
2 63413  42.9985 136.3064 0001600 277.6809  82.3861 15.27598392 71541
STARLINK-33644          
1 63414U 25065R   26191.22025527  .00015186  00000+0  55988-3 0  9998
2 63414  43.0002 135.5358 0001703 255.7168 104.3495 15.27600792 71579
STARLINK-33664          
1 63415U 25065S   26190.92015666  .00010480  00000+0  38939-3 0  9997
2 63415  43.0010 136.7279 0001444 265.9476  94.1211 15.27617764 71536
STARLINK-33649          
1 63416U 25065T   26191.23426061  .00012830  00000+0  47478-3 0  9997
2 63416  43.0035 134.7702 0001398 288.9401  71.1299 15.27590237 71585
STARLINK-33535          
1 63417U 25065U   26190.19964275  .00018932  00000+0  69497-3 0  9990
2 63417  42.9723 140.7911 0000602  13.7738 346.3130 15.27615364 71424
