OBJECT_NAME,OBJECT_ID,EPOCH,MEAN_MOTION,ECCENTRICITY,INCLINATION,RA_OF_ASC_NODE,ARG_OF_PERICENTER,MEAN_ANOMALY,EPHEMERIS_TYPE,CLASSIFICATION_TYPE,NORAD_CAT_ID,ELEMENT_SET_NO,REV_AT_EPOCH,BSTAR,MEAN_MOTION_DOT,MEAN_MOTION_DDOT
STARLINK-33653,2025-063T,2026-07-09T10:48:11.810880,15.31736688,.0000728,53.1602,206.7473,20.9421,339.1610,0,U,63380,999,7335,.45140132E-3,.13684E-3,0
STARLINK-33643,2025-063U,2026-07-09T12:33:34.202592,15.30228576,.00010604,53.1568,206.4884,89.0665,271.0457,0,U,63381,999,7341,.7718546E-3,.22591E-3,0
STARLINK-33748,2025-063W,2026-07-10T07:59:26.307168,15.34382893,.00011479,53.1600,212.9510,83.5086,276.6047,0,U,63383,999,7339,.70296471E-3,.23436E-3,0
STARLINK-33658,2025-063X,2026-07-10T01:07:05.562624,15.34422487,.00071965,53.1579,200.5166,120.7615,239.4097,0,U,63384,999,7354,.72737668E-3,.24312E-3,0
STARLINK-33616,2025-063Y,2026-07-09T08:41:35.767392,15.34412347,.00012306,53.1578,217.5662,90.1394,269.9750,0,U,63385,999,7319,.21677493E-3,.6958E-4,0
STARLINK-33571,2025-063Z,2026-07-10T00:49:01.967520,15.34415494,.00018953,53.1574,212.4971,76.6952,283.4261,0,U,63386,999,7332,.43288877E-3,.14285E-3,0
STARLINK-33533,2025-063AA,2026-07-09T10:56:52.868544,15.34443280,.00006991,53.1582,203.2349,102.6481,257.4600,0,U,63387,999,7340,.88429608E-3,.2966E-3,0
STARLINK-33629,2025-063AB,2026-07-10T00:51:57.744864,15.34397589,.00015125,53.1572,200.4532,106.4276,253.6893,0,U,63388,999,7354,.21217516E-3,.6798E-4,0
STARLINK-33656,2025-063AC,2026-07-09T11:01:30.590976,15.31740358,.00013674,53.1578,206.0944,105.2217,254.8936,0,U,63389,999,7341,.73945443E-3,.2268E-3,0
LEMUR-2-BALTO,2025-052BH,2026-07-10T03:08:47.216256,15.00335374,.00054077,97.6934,84.4803,348.2785,11.8312,0,U,63395,999,7220,.29516608E-3,.3644E-4,0
TJS-16,2025-064A,2026-07-09T17:29:01.440096,1.00271007,.0002559,1.1532,81.3206,292.1918,337.0309,0,U,63397,999,461,0,-.94E-6,0
STARLINK-33531,2025-065A,2026-07-10T05:48:25.723296,15.27601004,.00023062,43.0019,134.8920,249.7582,110.3022,0,U,63399,999,7158,.44239253E-3,.11939E-3,0
STARLINK-33652,2025-065B,2026-07-10T05:11:25.989792,15.27583754,.00011618,42.9953,134.6992,56.7006,303.3957,0,U,63400,999,7158,.55532636E-3,.15052E-3,0
STARLINK-33707,2025-065C,2026-07-10T05:42:52.805952,15.27591730,.00016206,43.0023,134.8677,247.4684,112.5996,0,U,63401,999,7158,.39774045E-3,.10703E-3,0
STARLINK-33668,2025-065D,2026-07-10T04:34:36.276960,15.27587251,.00044248,43.0228,135.3349,240.7199,119.3211,0,U,63402,999,7157,.60548711E-3,.16443E-3,0
STARLINK-33676,2025-065E,2026-07-09T06:08:40.428672,15.27616112,.00028035,43.0084,140.3866,254.0331,106.0212,0,U,63403,999,7143,.46289989E-3,.12512E-3,0
STARLINK-33711,2025-065F,2026-07-09T05:37:13.660896,15.27612019,.00016611,43.0067,140.2237,253.5095,106.5574,0,U,63404,999,7143,.46203188E-3,.12486E-3,0
STARLINK-33708,2025-065G,2026-07-10T05:46:34.957632,15.27586650,.000143,43.0016,134.8800,278.3110,81.7579,0,U,63405,999,7158,.62395262E-3,.16951E-3,0
STARLINK-33690,2025-065H,2026-07-10T05:02:52.866240,15.27609902,.00012833,42.9951,131.1958,60.5458,299.5521,0,U,63406,999,7162,.11438276E-2,.31376E-3,0
STARLINK-33694,2025-065J,2026-07-09T06:03:08.160192,15.27612159,.00018027,43.0070,140.3527,255.8009,104.2642,0,U,63407,999,7143,.49475714E-3,.1339E-3,0
STARLINK-33692,2025-065K,2026-07-10T05:03:32.146272,15.27593370,.00005424,42.9909,138.9699,280.4980,79.5810,0,U,63408,999,7153,.56849004E-3,.15421E-3,0
STARLINK-33693,2025-065L,2026-07-09T04:54:53.267616,15.27603633,.00017626,42.9990,140.8645,10.2983,349.7905,0,U,63409,999,7142,.67599663E-3,.184E-3,0
STARLINK-33677,2025-065M,2026-07-10T05:50:16.711872,15.27591942,.00016443,43.0026,134.8909,275.6913,84.3751,0,U,63410,999,7158,.41843251E-3,.11274E-3,0
STARLINK-33647,2025-065N,2026-07-10T05:25:03.030528,15.27604634,.00007476,42.9883,142.5531,345.0482,15.0348,0,U,63411,999,7149,.65233406E-3,.17746E-3,0
STARLINK-33645,2025-065P,2026-07-09T06:06:07.443648,15.27606430,.0001128,43.0015,143.7641,277.7428,82.3296,0,U,63412,999,7139,.43013886E-3,.11602E-3,0
STARLINK-33670,2025-065Q,2026-07-09T23:28:05.557440,15.27598392,.00016004,42.9985,136.3064,277.6809,82.3861,0,U,63413,999,7154,.56744378E-3,.15394E-3,0
STARLINK-33644,2025-065R,2026-07-10T05:17:10.055328,15.27600792,.0001703,43.0002,135.5358,255.7168,104.3495,0,U,63414,999,7157,.55987825E-3,.15186E-3,0
STARLINK-33664,2025-065S,2026-07-09T22:05:01.535424,15.27617764,.00014441,43.0010,136.7279,265.9476,94.1211,0,U,63415,999,7153,.38938551E-3,.1048E-3,0
STARLINK-33649,2025-065T,2026-07-10T05:37:20.116704,15.27590237,.0001398,43.0035,134.7702,288.9401,71.1299,0,U,63416,999,7158,.47477963E-3,.1283E-3,0
STARLINK-33535,2025-065U,2026-07-09T04:47:29.133600,15.27615364,.0000602,42.9723,140.7911,13.7738,346.3130,0,U,63417,999,7142,.69496807E-3,.18932E-3,0
